{"type": "FeatureCollection", "features": [ {"type": "Feature", "properties": {"norad_id": 67050, "name": "STARLINK-36078", "group": "last-30-days", "lat": 38.43058344178852, "lon": -174.92714497275884, "alt_km": 309.01609894794456, "timestamp": "2025-12-21T18:54:57.226417+00:00", "meta": {"OBJECT_NAME": "STARLINK-36078", "OBJECT_ID": "2025-294W", "EPOCH": "2025-12-21T14:00:01.999872", "MEAN_MOTION": 15.85624052, "ECCENTRICITY": 0.0001325, "INCLINATION": 43.0001, "RA_OF_ASC_NODE": 127.9595, "ARG_OF_PERICENTER": 281.1143, "MEAN_ANOMALY": 54.117, "EPHEMERIS_TYPE": 0, "CLASSIFICATION_TYPE": "U", "NORAD_CAT_ID": 67050, "ELEMENT_SET_NO": 999, "REV_AT_EPOCH": 165, "BSTAR": 0.00040007756, "MEAN_MOTION_DOT": 0.00100639, "MEAN_MOTION_DDOT": 0}, "tle": {"line1": "1 67050U 25294W   25355.58335648  .00100639  00000+0  40008-3 0  9995", "line2": "2 67050  43.0001 127.9595 0001325 281.1143  54.1170 15.85624052  1655"}}, "geometry": {"type": "Point", "coordinates": [-174.92714497275884, 38.43058344178852]}}, {"type": "Feature", "properties": {"norad_id": 67051, "name": "STARLINK-35706", "group": "last-30-days", "lat": 39.26756466134228, "lon": -171.98486258363815, "alt_km": 310.3063237384067, "timestamp": "2025-12-21T18:54:57.226428+00:00", "meta": {"OBJECT_NAME": "STARLINK-35706", "OBJECT_ID": "2025-294X", "EPOCH": "2025-12-21T14:00:01.999872", "MEAN_MOTION": 15.86080846, "ECCENTRICITY": 0.0001707, "INCLINATION": 43.0002, "RA_OF_ASC_NODE": 127.9533, "ARG_OF_PERICENTER": 265.4624, "MEAN_ANOMALY": 72.1768, "EPHEMERIS_TYPE": 0, "CLASSIFICATION_TYPE": "U", "NORAD_CAT_ID": 67051, "ELEMENT_SET_NO": 999, "REV_AT_EPOCH": 173, "BSTAR": -0.0075735825, "MEAN_MOTION_DOT": -0.01684873, "MEAN_MOTION_DDOT": 0}, "tle": {"line1": "1 67051U 25294X   25355.58335648 -.01684873  00000+0 -75736-2 0  9991", "line2": "2 67051  43.0002 127.9533 0001707 265.4624  72.1768 15.86080846  1732"}}, "geometry": {"type": "Point", "coordinates": [-171.98486258363815, 39.26756466134228]}}, {"type": "Feature", "properties": {"norad_id": 67052, "name": "STARLINK-35720", "group": "last-30-days", "lat": 39.895750726596496, "lon": -169.52672938668618, "alt_km": 310.0558731219744, "timestamp": "2025-12-21T18:54:57.226438+00:00", "meta": {"OBJECT_NAME": "STARLINK-35720", "OBJECT_ID": "2025-294Y", "EPOCH": "2025-12-21T14:00:01.999872", "MEAN_MOTION": 15.860577, "ECCENTRICITY": 0.00014634, "INCLINATION": 43.0001, "RA_OF_ASC_NODE": 127.9483, "ARG_OF_PERICENTER": 266.5723, "MEAN_ANOMALY": 73.0736, "EPHEMERIS_TYPE": 0, "CLASSIFICATION_TYPE": "U", "NORAD_CAT_ID": 67052, "ELEMENT_SET_NO": 999, "REV_AT_EPOCH": 172, "BSTAR": -0.0073577583, "MEAN_MOTION_DOT": -0.01641276, "MEAN_MOTION_DDOT": 0}, "tle": {"line1": "1 67052U 25294Y   25355.58335648 -.01641276  00000+0 -73578-2 0  9994", "line2": "2 67052  43.0001 127.9483 0001463 266.5723  73.0736 15.86057700  1724"}}, "geometry": {"type": "Point", "coordinates": [-169.52672938668618, 39.895750726596496]}}, {"type": "Feature", "properties": {"norad_id": 67053, "name": "STARLINK-35739", "group": "last-30-days", "lat": 40.549489255193215, "lon": -166.66175672119232, "alt_km": 309.8304335367902, "timestamp": "2025-12-21T18:54:57.226448+00:00", "meta": {"OBJECT_NAME": "STARLINK-35739", "OBJECT_ID": "2025-294Z", "EPOCH": "2025-12-21T14:00:01.999872", "MEAN_MOTION": 15.86036666, "ECCENTRICITY": 0.00014132, "INCLINATION": 43.0003, "RA_OF_ASC_NODE": 127.9423, "ARG_OF_PERICENTER": 283.2018, "MEAN_ANOMALY": 58.7372, "EPHEMERIS_TYPE": 0, "CLASSIFICATION_TYPE": "U", "NORAD_CAT_ID": 67053, "ELEMENT_SET_NO": 999, "REV_AT_EPOCH": 137, "BSTAR": -0.0073028375, "MEAN_MOTION_DOT": -0.01629087, "MEAN_MOTION_DDOT": 0}, "tle": {"line1": "1 67053U 25294Z   25355.58335648 -.01629087  00000+0 -73028-2 0  9991", "line2": "2 67053  43.0003 127.9423 0001413 283.2018  58.7372 15.86036666  1374"}}, "geometry": {"type": "Point", "coordinates": [-166.66175672119232, 40.549489255193215]}}, {"type": "Feature", "properties": {"norad_id": 67054, "name": "STARLINK-35754", "group": "last-30-days", "lat": 41.1811646754723, "lon": -163.46700337322582, "alt_km": 309.9269825257834, "timestamp": "2025-12-21T18:54:57.226457+00:00", "meta": {"OBJECT_NAME": "STARLINK-35754", "OBJECT_ID": "2025-294AA", "EPOCH": "2025-12-21T14:00:01.999872", "MEAN_MOTION": 15.86021846, "ECCENTRICITY": 0.00015781, "INCLINATION": 43.0002, "RA_OF_ASC_NODE": 127.9361, "ARG_OF_PERICENTER": 279.8862, "MEAN_ANOMALY": 64.5617, "EPHEMERIS_TYPE": 0, "CLASSIFICATION_TYPE": "U", "NORAD_CAT_ID": 67054, "ELEMENT_SET_NO": 999, "REV_AT_EPOCH": 153, "BSTAR": -0.007278759, "MEAN_MOTION_DOT": -0.01623517, "MEAN_MOTION_DDOT": 0}, "tle": {"line1": "1 67054U 25294AA  25355.58335648 -.01623517  00000+0 -72788-2 0  9996", "line2": "2 67054  43.0002 127.9361 0001578 279.8862  64.5617 15.86021846  1534"}}, "geometry": {"type": "Point", "coordinates": [-163.46700337322582, 41.1811646754723]}}, {"type": "Feature", "properties": {"norad_id": 67055, "name": "STARLINK-35790", "group": "last-30-days", "lat": 41.70744264490709, "lon": -160.3144387372249, "alt_km": 310.0395963881592, "timestamp": "2025-12-21T18:54:57.226469+00:00", "meta": {"OBJECT_NAME": "STARLINK-35790", "OBJECT_ID": "2025-294AB", "EPOCH": "2025-12-21T14:00:01.999872", "MEAN_MOTION": 15.8599159, "ECCENTRICITY": 0.00016627, "INCLINATION": 43, "RA_OF_ASC_NODE": 127.9293, "ARG_OF_PERICENTER": 276.3758, "MEAN_ANOMALY": 70.5188, "EPHEMERIS_TYPE": 0, "CLASSIFICATION_TYPE": "U", "NORAD_CAT_ID": 67055, "ELEMENT_SET_NO": 999, "REV_AT_EPOCH": 173, "BSTAR": -0.0072940076, "MEAN_MOTION_DOT": -0.01624439, "MEAN_MOTION_DDOT": 0}, "tle": {"line1": "1 67055U 25294AB  25355.58335648 -.01624439  00000+0 -72940-2 0  9991", "line2": "2 67055  43.0000 127.9293 0001662 276.3758  70.5188 15.85991590  1730"}}, "geometry": {"type": "Point", "coordinates": [-160.3144387372249, 41.70744264490709]}}, {"type": "Feature", "properties": {"norad_id": 67056, "name": "STARLINK-36143", "group": "last-30-days", "lat": 42.653045558233735, "lon": -151.98736205472756, "alt_km": 309.5324331336178, "timestamp": "2025-12-21T18:54:57.226479+00:00", "meta": {"OBJECT_NAME": "STARLINK-36143", "OBJECT_ID": "2025-294AC", "EPOCH": "2025-12-21T14:00:01.999872", "MEAN_MOTION": 15.86016011, "ECCENTRICITY": 0.00010957, "INCLINATION": 43, "RA_OF_ASC_NODE": 127.9136, "ARG_OF_PERICENTER": 278.5935, "MEAN_ANOMALY": 74.5355, "EPHEMERIS_TYPE": 0, "CLASSIFICATION_TYPE": "U", "NORAD_CAT_ID": 67056, "ELEMENT_SET_NO": 999, "REV_AT_EPOCH": 173, "BSTAR": -0.0074590014, "MEAN_MOTION_DOT": -0.01657577, "MEAN_MOTION_DDOT": 0}, "tle": {"line1": "1 67056U 25294AC  25355.58335648 -.01657577  00000+0 -74590-2 0  9994", "line2": "2 67056  43.0000 127.9136 0001095 278.5935  74.5355 15.86016011  1735"}}, "geometry": {"type": "Point", "coordinates": [-151.98736205472756, 42.653045558233735]}}, {"type": "Feature", "properties": {"norad_id": 67057, "name": "STARLINK-36141", "group": "last-30-days", "lat": 42.392560725138964, "lon": -154.91502856501103, "alt_km": 309.7943746212841, "timestamp": "2025-12-21T18:54:57.226491+00:00", "meta": {"OBJECT_NAME": "STARLINK-36141", "OBJECT_ID": "2025-294AD", "EPOCH": "2025-12-21T14:00:01.999872", "MEAN_MOTION": 15.86011862, "ECCENTRICITY": 0.00014671, "INCLINATION": 43, "RA_OF_ASC_NODE": 127.9194, "ARG_OF_PERICENTER": 276.6914, "MEAN_ANOMALY": 74.2608, "EPHEMERIS_TYPE": 0, "CLASSIFICATION_TYPE": "U", "NORAD_CAT_ID": 67057, "ELEMENT_SET_NO": 999, "REV_AT_EPOCH": 165, "BSTAR": -0.0073477569, "MEAN_MOTION_DOT": -0.01636109, "MEAN_MOTION_DDOT": 0}, "tle": {"line1": "1 67057U 25294AD  25355.58335648 -.01636109  00000+0 -73478-2 0  9997", "line2": "2 67057  43.0000 127.9194 0001467 276.6914  74.2608 15.86011862  1657"}}, "geometry": {"type": "Point", "coordinates": [-154.91502856501103, 42.392560725138964]}}, {"type": "Feature", "properties": {"norad_id": 67058, "name": "STARLINK-35767", "group": "last-30-days", "lat": 42.0911610810544, "lon": -157.55757325408237, "alt_km": 310.0220316438845, "timestamp": "2025-12-21T18:54:57.226501+00:00", "meta": {"OBJECT_NAME": "STARLINK-35767", "OBJECT_ID": "2025-294AE", "EPOCH": "2025-12-21T14:00:01.999872", "MEAN_MOTION": 15.85995962, "ECCENTRICITY": 0.00017564, "INCLINATION": 43.0003, "RA_OF_ASC_NODE": 127.9241, "ARG_OF_PERICENTER": 280.286, "MEAN_ANOMALY": 68.6942, "EPHEMERIS_TYPE": 0, "CLASSIFICATION_TYPE": "U", "NORAD_CAT_ID": 67058, "ELEMENT_SET_NO": 999, "REV_AT_EPOCH": 154, "BSTAR": -0.0073348538, "MEAN_MOTION_DOT": -0.01632755, "MEAN_MOTION_DDOT": 0}, "tle": {"line1": "1 67058U 25294AE  25355.58335648 -.01632755  00000+0 -73349-2 0  9998", "line2": "2 67058  43.0003 127.9241 0001756 280.2860  68.6942 15.85995962  1543"}}, "geometry": {"type": "Point", "coordinates": [-157.55757325408237, 42.0911610810544]}}, {"type": "Feature", "properties": {"norad_id": 67059, "name": "HULIANWANG DIGUI-119", "group": "last-30-days", "lat": -20.785947503993967, "lon": 172.64063078811984, "alt_km": 809.2559395007811, "timestamp": "2025-12-21T18:54:57.226513+00:00", "meta": {"OBJECT_NAME": "HULIANWANG DIGUI-119", "OBJECT_ID": "2025-295A", "EPOCH": "2025-12-21T06:09:35.157888", "MEAN_MOTION": 14.24613784, "ECCENTRICITY": 0.0013985, "INCLINATION": 50.0066, "RA_OF_ASC_NODE": 336.301, "ARG_OF_PERICENTER": 276.3631, "MEAN_ANOMALY": 83.569, "EPHEMERIS_TYPE": 0, "CLASSIFICATION_TYPE": "U", "NORAD_CAT_ID": 67059, "ELEMENT_SET_NO": 999, "REV_AT_EPOCH": 133, "BSTAR": -1.5133e-05, "MEAN_MOTION_DOT": -1.95e-06, "MEAN_MOTION_DDOT": 0}, "tle": {"line1": "1 67059U 25295A   25355.25665692 -.00000195  00000+0 -15133-4 0  9994", "line2": "2 67059  50.0066 336.3010 0013985 276.3631  83.5690 14.24613784  1334"}}, "geometry": {"type": "Point", "coordinates": [172.64063078811984, -20.785947503993967]}}]}